EUTELSAT 8 WEST B       
1 40875U 15039B   25285.27291204 -.00000074  00000+0  00000+0 0  9991
2 40875   0.0680   0.8553 0003765 201.8844 268.6181  1.00271444 37172
EUTELSAT 9B             
1 41310U 16005A   25285.27620539  .00000053  00000+0  00000+0 0  9993
2 41310   0.0701  68.1532 0003720 166.5030 254.8889  1.00272610 35637
EUTELSAT 65 WEST A      
1 41382U 16014A   25285.26155865 -.00000285  00000+0  00000+0 0  9994
2 41382   0.0811  46.5612 0002339 162.1561 201.3636  1.00271950 35041
EUTELSAT 117 WEST B     
1 41589U 16038B   25285.25124527 -.00000020  00000+0  00000+0 0  9996
2 41589   0.0080  25.1680 0000548  71.9199 257.4539  1.00270162 34171
EUTELSAT 172B           
1 42741U 17029B   25285.23720521 -.00000015  00000+0  00000+0 0  9996
2 42741   0.0174 173.4984 0000220  83.3377  21.6399  1.00270115 31240
EUTELSAT 7C             
1 44334U 19034B   25285.27585872  .00000039  00000+0  00000+0 0  9991
2 44334   0.0645 185.8467 0003267   3.0765 298.5016  1.00269869  4357
EUTELSAT 5 WEST B       
1 44624U 19067A   25285.27343204 -.00000051  00000+0  00000+0 0  9995
2 44624   0.0679  19.8455 0003319 188.7325 265.9700  1.00270989 21958
EUTELSAT KONNECT        
1 45027U 20005B   25285.11295023  .00000042  00000+0  00000+0 0  9994
2 45027   0.0665  92.5221 0001884 123.8187 212.4787  1.00274641 21839
